[{"OBJECT_NAME":"TRANSPORTER-13 OBJECT AH","OBJECT_ID":"2025-052AH","EPOCH":"2026-03-09T15:34:17.115744","MEAN_MOTION":15.25468797,"ECCENTRICITY":0.000807,"INCLINATION":97.3962,"RA_OF_ASC_NODE":323.1443,"ARG_OF_PERICENTER":138.7508,"MEAN_ANOMALY":221.4341,"EPHEMERIS_TYPE":0,"CLASSIFICATION_TYPE":"U","NORAD_CAT_ID":63241,"ELEMENT_SET_NO":999,"REV_AT_EPOCH":5475,"BSTAR":0.00055931,"MEAN_MOTION_DOT":0.00014108,"MEAN_MOTION_DDOT":0},{"OBJECT_NAME":"STARLINK-35680","OBJECT_ID":"2025-270Y","EPOCH":"2026-03-09T22:29:35.759616","MEAN_MOTION":15.27608853,"ECCENTRICITY":0.00035908,"INCLINATION":43.0043,"RA_OF_ASC_NODE":54.7886,"ARG_OF_PERICENTER":302.0404,"MEAN_ANOMALY":58.0099,"EPHEMERIS_TYPE":0,"CLASSIFICATION_TYPE":"U","NORAD_CAT_ID":66610,"ELEMENT_SET_NO":999,"REV_AT_EPOCH":1785,"BSTAR":0.0011909637,"MEAN_MOTION_DOT":0.00032689,"MEAN_MOTION_DDOT":0}]
